start=new Date('2022-05-07T00:00:00.000Z').valueOf();
sats=[{"TLE_LINE2":"2 47378  53.0537 200.9546 0001705  59.4274 300.6883 15.06403164 72102","EPOCH":"2022-05-06T11:06:24.994656","SITE":"AFETR","ELEMENT_SET_NO":"999","REF_FRAME":"TEME","FILE":"3432208","MEAN_ANOMALY":"300.6883","OBJECT_TYPE":"PAYLOAD","SEMIMAJOR_AXIS":"6925.339","ECCENTRICITY":"0.00017050","GP_ID":"202861436","MEAN_MOTION":"15.06403164","CENTER_NAME":"EARTH","PERIOD":"95.592","EPHEMERIS_TYPE":"0","INCLINATION":"53.0537","RCS_SIZE":"LARGE","CLASSIFICATION_TYPE":"U","OBJECT_NAME":"STARLINK-2098","BSTAR":"-0.00004138400000","LAUNCH_DATE":"2021-01-20","RA_OF_ASC_NODE":"200.9546","TIME_SYSTEM":"UTC","APOAPSIS":"548.385","MEAN_ELEMENT_THEORY":"SGP4","TLE_LINE1":"1 47378U 21005AF  22126.46278929 -.00000898  00000-0 -41384-4 0  9998","MEAN_MOTION_DDOT":"0.0000000000000","NORAD_CAT_ID":"47378","MEAN_MOTION_DOT":"-0.00000898","OBJECT_ID":"2021-005AF","ARG_OF_PERICENTER":"59.4274","PERIAPSIS":"546.023","DECAY_DATE":null,"COUNTRY_CODE":"US","REV_AT_EPOCH":"7210"},{"INCLINATION":"53.0542","PERIOD":"95.593","EPHEMERIS_TYPE":"0","OBJECT_NAME":"STARLINK-2099","RCS_SIZE":"LARGE","CLASSIFICATION_TYPE":"U","LAUNCH_DATE":"2021-01-20","RA_OF_ASC_NODE":"200.0233","BSTAR":"-0.00000269430000","TLE_LINE1":"1 47379U 21005AG  22126.66920748 -.00000322  00000-0 -26943-5 0  9991","NORAD_CAT_ID":"47379","MEAN_MOTION_DDOT":"0.0000000000000","MEAN_MOTION_DOT":"-0.00000322","OBJECT_ID":"2021-005AG","APOAPSIS":"548.453","TIME_SYSTEM":"UTC","MEAN_ELEMENT_THEORY":"SGP4","PERIAPSIS":"546.014","ARG_OF_PERICENTER":"58.3962","DECAY_DATE":null,"COUNTRY_CODE":"US","REV_AT_EPOCH":"7213","REF_FRAME":"TEME","EPOCH":"2022-05-06T16:03:39.526272","TLE_LINE2":"2 47379  53.0542 200.0233 0001761  58.3962 301.7198 15.06393352 72138","ELEMENT_SET_NO":"999","SITE":"AFETR","FILE":"3432398","MEAN_ANOMALY":"301.7198","OBJECT_TYPE":"PAYLOAD","ECCENTRICITY":"0.00017610","GP_ID":"202868452","SEMIMAJOR_AXIS":"6925.369","MEAN_MOTION":"15.06393352","CENTER_NAME":"EARTH"},{"OBJECT_TYPE":"PAYLOAD","MEAN_ANOMALY":"310.4071","MEAN_MOTION":"15.06405907","CENTER_NAME":"EARTH","ECCENTRICITY":"0.00018660","GP_ID":"202860463","SEMIMAJOR_AXIS":"6925.330","REF_FRAME":"TEME","TLE_LINE2":"2 47380  53.0527 210.7840 0001866  49.7081 310.4071 15.06405907 71975","EPOCH":"2022-05-06T11:58:09.776064","SITE":"AFETR","ELEMENT_SET_NO":"999","FILE":"3432208","PERIAPSIS":"545.903","ARG_OF_PERICENTER":"49.7081","TLE_LINE1":"1 47380U 21005AH  22126.49872426 -.00000735  00000-0 -30411-4 0  9995","MEAN_MOTION_DOT":"-0.00000735","MEAN_MOTION_DDOT":"0.0000000000000","NORAD_CAT_ID":"47380","OBJECT_ID":"2021-005AH","APOAPSIS":"548.488","TIME_SYSTEM":"UTC","MEAN_ELEMENT_THEORY":"SGP4","REV_AT_EPOCH":"7197","DECAY_DATE":null,"COUNTRY_CODE":"US","INCLINATION":"53.0527","PERIOD":"95.592","EPHEMERIS_TYPE":"0","LAUNCH_DATE":"2021-01-20","RA_OF_ASC_NODE":"210.7840","BSTAR":"-0.00003041100000","OBJECT_NAME":"STARLINK-2100","CLASSIFICATION_TYPE":"U","RCS_SIZE":"LARGE"},{"MEAN_ELEMENT_THEORY":"SGP4","APOAPSIS":"548.288","TIME_SYSTEM":"UTC","MEAN_MOTION_DOT":"-0.00001165","MEAN_MOTION_DDOT":"0.0000000000000","OBJECT_ID":"2021-005AJ","NORAD_CAT_ID":"47381","TLE_LINE1":"1 47381U 21005AJ  22126.50653973 -.00001165  00000-0 -59334-4 0  9995","ARG_OF_PERICENTER":"71.2094","PERIAPSIS":"546.073","COUNTRY_CODE":"US","DECAY_DATE":null,"REV_AT_EPOCH":"7190","EPHEMERIS_TYPE":"0","PERIOD":"95.591","INCLINATION":"53.0523","CLASSIFICATION_TYPE":"U","RCS_SIZE":"LARGE","OBJECT_NAME":"STARLINK-2101","BSTAR":"-0.00005933400000","RA_OF_ASC_NODE":"215.7523","LAUNCH_DATE":"2021-01-20","MEAN_ANOMALY":"288.9068","OBJECT_TYPE":"PAYLOAD","SEMIMAJOR_AXIS":"6925.315","GP_ID":"202861211","ECCENTRICITY":"0.00015990","CENTER_NAME":"EARTH","MEAN_MOTION":"15.06410822","SITE":"AFETR","ELEMENT_SET_NO":"999","EPOCH":"2022-05-06T12:09:25.032672","TLE_LINE2":"2 47381  53.0523 215.7523 0001599  71.2094 288.9068 15.06410822 71902","REF_FRAME":"TEME","FILE":"3432208"},{"ECCENTRICITY":"0.00022270","GP_ID":"202868463","SEMIMAJOR_AXIS":"6925.610","MEAN_MOTION":"15.06314608","CENTER_NAME":"EARTH","MEAN_ANOMALY":"303.9682","OBJECT_TYPE":"PAYLOAD","FILE":"3432399","REF_FRAME":"TEME","TLE_LINE2":"2 47382  53.0559 210.2285 0002227  56.1518 303.9682 15.06314608 72927","EPOCH":"2022-05-06T14:58:39.924480","ELEMENT_SET_NO":"999","SITE":"AFETR","DECAY_DATE":null,"COUNTRY_CODE":"US","REV_AT_EPOCH":"7292","TLE_LINE1":"1 47382U 21005AK  22126.62407320  .00016872  00000-0  11515-2 0  9998","MEAN_MOTION_DDOT":"0.0000000000000","OBJECT_ID":"2021-005AK","MEAN_MOTION_DOT":"0.00016872","NORAD_CAT_ID":"47382","APOAPSIS":"549.018","TIME_SYSTEM":"UTC","MEAN_ELEMENT_THEORY":"SGP4","PERIAPSIS":"545.933","ARG_OF_PERICENTER":"56.1518","OBJECT_NAME":"STARLINK-2102","CLASSIFICATION_TYPE":"U","RCS_SIZE":"LARGE","LAUNCH_DATE":"2021-01-20","RA_OF_ASC_NODE":"210.2285","BSTAR":"0.00115150000000","INCLINATION":"53.0559","PERIOD":"95.598","EPHEMERIS_TYPE":"0"},{"GP_ID":"202868483","ECCENTRICITY":"0.00017490","SEMIMAJOR_AXIS":"6925.352","CENTER_NAME":"EARTH","MEAN_MOTION":"15.06398995","MEAN_ANOMALY":"307.4187","OBJECT_TYPE":"PAYLOAD","FILE":"3432408","REF_FRAME":"TEME","ELEMENT_SET_NO":"999","SITE":"AFETR","TLE_LINE2":"2 47383  53.0540 200.4470 0001749  52.6961 307.4187 15.06398995 72128","EPOCH":"2022-05-06T13:49:36.568416","COUNTRY_CODE":"US","DECAY_DATE":null,"REV_AT_EPOCH":"7212","MEAN_MOTION_DDOT":"0.0000000000000","OBJECT_ID":"2021-005AL","MEAN_MOTION_DOT":"-0.00000701","NORAD_CAT_ID":"47383","TLE_LINE1":"1 47383U 21005AL  22126.57611769 -.00000701  00000-0 -28162-4 0  9991","MEAN_ELEMENT_THEORY":"SGP4","TIME_SYSTEM":"UTC","APOAPSIS":"548.428","PERIAPSIS":"546.005","ARG_OF_PERICENTER":"52.6961","OBJECT_NAME":"STARLINK-2103","CLASSIFICATION_TYPE":"U","RCS_SIZE":"LARGE","RA_OF_ASC_NODE":"200.4470","LAUNCH_DATE":"2021-01-20","BSTAR":"-0.00002816200000","INCLINATION":"53.0540","EPHEMERIS_TYPE":"0","PERIOD":"95.592"},{"EPHEMERIS_TYPE":"0","PERIOD":"95.592","INCLINATION":"53.0534","BSTAR":"-0.00006321500000","RA_OF_ASC_NODE":"210.7017","LAUNCH_DATE":"2021-01-20","RCS_SIZE":"LARGE","CLASSIFICATION_TYPE":"U","OBJECT_NAME":"STARLINK-2104","ARG_OF_PERICENTER":"47.7329","PERIAPSIS":"546.076","MEAN_ELEMENT_THEORY":"SGP4","APOAPSIS":"548.378","TIME_SYSTEM":"UTC","MEAN_MOTION_DDOT":"0.0000000000000","NORAD_CAT_ID":"47384","MEAN_MOTION_DOT":"-0.00001223","OBJECT_ID":"2021-005AM","TLE_LINE1":"1 47384U 21005AM  22126.51990186 -.00001223  00000-0 -63215-4 0  9997","REV_AT_EPOCH":"7197","COUNTRY_CODE":"US","DECAY_DATE":null,"ELEMENT_SET_NO":"999","SITE":"AFETR","TLE_LINE2":"2 47384  53.0534 210.7017 0001662  47.7329 312.3800 15.06395664 71979","EPOCH":"2022-05-06T12:28:39.520704","REF_FRAME":"TEME","FILE":"3432208","OBJECT_TYPE":"PAYLOAD","MEAN_ANOMALY":"312.3800","CENTER_NAME":"EARTH","MEAN_MOTION":"15.06395664","SEMIMAJOR_AXIS":"6925.362","GP_ID":"202860963","ECCENTRICITY":"0.00016620"},{"REV_AT_EPOCH":"7196","DECAY_DATE":null,"COUNTRY_CODE":"US","PERIAPSIS":"546.130","ARG_OF_PERICENTER":"52.2116","TLE_LINE1":"1 47385U 21005AN  22126.47293693 -.00000731  00000-0 -30201-4 0  9994","OBJECT_ID":"2021-005AN","MEAN_MOTION_DDOT":"0.0000000000000","MEAN_MOTION_DOT":"-0.00000731","NORAD_CAT_ID":"47385","TIME_SYSTEM":"UTC","APOAPSIS":"548.359","MEAN_ELEMENT_THEORY":"SGP4","LAUNCH_DATE":"2021-01-20","RA_OF_ASC_NODE":"210.9106","BSTAR":"-0.00003020100000","OBJECT_NAME":"STARLINK-2105","CLASSIFICATION_TYPE":"U","RCS_SIZE":"LARGE","INCLINATION":"53.0553","PERIOD":"95.593","EPHEMERIS_TYPE":"0","MEAN_MOTION":"15.06389900","CENTER_NAME":"EARTH","ECCENTRICITY":"0.00016090","GP_ID":"202861712","SEMIMAJOR_AXIS":"6925.380","OBJECT_TYPE":"PAYLOAD","MEAN_ANOMALY":"307.9018","FILE":"3432208","REF_FRAME":"TEME","EPOCH":"2022-05-06T11:21:01.750752","TLE_LINE2":"2 47385  53.0553 210.9106 0001609  52.2116 307.9018 15.06389900 71964","ELEMENT_SET_NO":"999","SITE":"AFETR"},{"REV_AT_EPOCH":"7197","DECAY_DATE":null,"COUNTRY_CODE":"US","ARG_OF_PERICENTER":"42.7475","PERIAPSIS":"545.990","APOAPSIS":"548.536","TIME_SYSTEM":"UTC","MEAN_ELEMENT_THEORY":"SGP4","TLE_LINE1":"1 47386U 21005AP  22126.50242687 -.00001391  00000-0 -74533-4 0  9995","MEAN_MOTION_DOT":"-0.00001391","MEAN_MOTION_DDOT":"0.0000000000000","NORAD_CAT_ID":"47386","OBJECT_ID":"2021-005AP","BSTAR":"-0.00007453300000","LAUNCH_DATE":"2021-01-20","RA_OF_ASC_NODE":"210.7741","CLASSIFICATION_TYPE":"U","RCS_SIZE":"LARGE","OBJECT_NAME":"STARLINK-2106","PERIOD":"95.593","EPHEMERIS_TYPE":"0","INCLINATION":"53.0543","MEAN_MOTION":"15.06383782","CENTER_NAME":"EARTH","SEMIMAJOR_AXIS":"6925.398","ECCENTRICITY":"0.00018380","GP_ID":"202861437","OBJECT_TYPE":"PAYLOAD","MEAN_ANOMALY":"317.3657","FILE":"3432208","TLE_LINE2":"2 47386  53.0543 210.7741 0001838  42.7475 317.3657 15.06383782 71970","EPOCH":"2022-05-06T12:03:29.681568","SITE":"AFETR","ELEMENT_SET_NO":"999","REF_FRAME":"TEME"},{"OBJECT_TYPE":"PAYLOAD","MEAN_ANOMALY":"289.0748","MEAN_MOTION":"15.06388021","CENTER_NAME":"EARTH","SEMIMAJOR_AXIS":"6925.385","ECCENTRICITY":"0.00015700","GP_ID":"202860711","TLE_LINE2":"2 47387  53.0549 240.8357 0001570  71.0411 289.0748 15.06388021 71542","EPOCH":"2022-05-06T11:43:34.849920","SITE":"AFETR","ELEMENT_SET_NO":"999","REF_FRAME":"TEME","FILE":"3432208","ARG_OF_PERICENTER":"71.0411","PERIAPSIS":"546.163","APOAPSIS":"548.338","TIME_SYSTEM":"UTC","MEAN_ELEMENT_THEORY":"SGP4","TLE_LINE1":"1 47387U 21005AQ  22126.48859780 -.00002589  00000-0 -15504-3 0  9993","MEAN_MOTION_DDOT":"0.0000000000000","OBJECT_ID":"2021-005AQ","MEAN_MOTION_DOT":"-0.00002589","NORAD_CAT_ID":"47387","REV_AT_EPOCH":"7154","DECAY_DATE":null,"COUNTRY_CODE":"US","PERIOD":"95.593","EPHEMERIS_TYPE":"0","INCLINATION":"53.0549","BSTAR":"-0.00015504000000","LAUNCH_DATE":"2021-01-20","RA_OF_ASC_NODE":"240.8357","RCS_SIZE":"LARGE","CLASSIFICATION_TYPE":"U","OBJECT_NAME":"STARLINK-2108"}];
